[Satellite]
VERSION=1.1
NAME=STARS-C
NICKNAME=STARS-C
TLE1=1 41895U 98067KR  17186.18987103  .00018287  00000-0  20778-3 0  9990
TLE2=2 41895  51.6384 302.8352 0004677  15.7258 344.3881 15.62377063 30803
